[{"OBJECT_NAME":"STARLINK-6204","OBJECT_ID":"2023-064AS","EPOCH":"2026-03-09T12:19:31.298880","MEAN_MOTION":14.98347279,"ECCENTRICITY":0.00031591,"INCLINATION":70.0002,"RA_OF_ASC_NODE":105.0059,"ARG_OF_PERICENTER":272.6146,"MEAN_ANOMALY":87.4651,"EPHEMERIS_TYPE":0,"CLASSIFICATION_TYPE":"U","NORAD_CAT_ID":56488,"ELEMENT_SET_NO":999,"REV_AT_EPOCH":15620,"BSTAR":0.00020050441,"MEAN_MOTION_DOT":2.301e-5,"MEAN_MOTION_DDOT":0},{"OBJECT_NAME":"FENGYUN 1C DEB","OBJECT_ID":"1999-025BGH","EPOCH":"2026-03-07T00:32:23.805600","MEAN_MOTION":14.61103727,"ECCENTRICITY":0.01714734,"INCLINATION":98.0965,"RA_OF_ASC_NODE":89.6303,"ARG_OF_PERICENTER":27.2612,"MEAN_ANOMALY":2.829,"EPHEMERIS_TYPE":0,"CLASSIFICATION_TYPE":"U","NORAD_CAT_ID":31087,"ELEMENT_SET_NO":999,"REV_AT_EPOCH":1,"BSTAR":0.00094332925,"MEAN_MOTION_DOT":5.664e-5,"MEAN_MOTION_DDOT":0}]
